#aV2019  7 29  0  0  0.00000000     288 DD+AD WGS84 FIT  NGA
## 2064  86400.00000000   300.00000000 58693 0.0000000000000
+   31     1  2  3  5  6  7  8  9 10 11 12 13 14 15 16 17 18
+         19 20 21 22 23 24 25 26 27 28 29 30 31 32  0  0  0
+          0  0  0  0  0  0  0  0  0  0  0  0  0  0  0  0  0
+          0  0  0  0  0  0  0  0  0  0  0  0  0  0  0  0  0
+          0  0  0  0  0  0  0  0  0  0  0  0  0  0  0  0  0
++         2  2  2  2  2  2  2  2  2  2  2  2  2  2  2  2  2
++         2  2  2  2  2  2  2  2  2  2  2  2  2  2  0  0  0
++         0  0  0  0  0  0  0  0  0  0  0  0  0  0  0  0  0
++         0  0  0  0  0  0  0  0  0  0  0  0  0  0  0  0  0
++         0  0  0  0  0  0  0  0  0  0  0  0  0  0  0  0  0
%c cc cc ccc ccc cccc cccc cccc cccc ccccc ccccc ccccc ccccc
%c cc cc ccc ccc cccc cccc cccc cccc ccccc ccccc ccccc ccccc
%f  0.0000000  0.000000000  0.00000000000  0.000000000000000
%f  0.0000000  0.000000000  0.00000000000  0.000000000000000
%i    0    0    0    0      0      0      0      0         0
%i    0    0    0    0      0      0      0      0         0
/*      NGA, ST. LOUIS,MO.                                  
/*   EPHEMERIS COMPUTED FROM 1 DAYS OF DATA                 
/*   EPOCHA v5 SMOOTHER                                     
/*   G1762 IERS2010 SATAF SATAPC                            
*  2019  7 29 21 50  0.00000000
P  1  -3667.338272  16804.274124 -20343.228451    -81.328185                    
V  1 -23557.376567   9665.599149  12663.413766     -0.109839                    
P  2  20761.640778 -15714.714425   5442.473338   -271.291856                    
V  2   6829.247403   -381.330843 -30724.324281     -0.085058                    
P  3   7123.734144  19321.190093 -16874.280965    178.077075                    
V  3 -18380.314623 -10873.781695 -20177.814749     -0.025456                    
P  5  13294.479650  -9174.732174  20987.923119     -0.258251                    
V  5  22125.061750  15394.642940  -7037.362815     -0.002570                    
P  6  24583.167335  -4975.938697  -8746.443483     -8.890296                    
V  6  -9182.136510   6648.166755 -29423.390673     -0.115331                    
P  7  12484.098638  10816.030463  21160.232443    -74.460818                    
V  7 -23670.667651  11166.104220   7888.400231     -0.077995                    
P  8  -5080.376249  25541.001340   4660.399829     -0.679975                    
V  8  -2196.174533  -6087.267100  31359.438588     -0.014360                    
P  9   9057.402396  20107.485965  14755.316689    359.831379                    
V  9  -3650.662397  18614.770193 -23070.953197     -0.086091                    
P 10 -23508.876227 -10179.311458  -7341.969349    -33.462770                    
V 10  -6289.025756  -7330.199533  29842.266230     -0.135406                    
P 11  -4292.637431  22556.990662 -14108.131564   -548.737976                    
V 11 -13108.977492  11345.147121  22721.398381      0.097195                    
P 12  -3221.185705 -18742.546917 -18824.473645    219.146675                    
V 12  18783.061040  13896.034433 -17089.183644     -0.036722                    
P 13  12788.106303 -19770.005866  12125.785310    -52.252281                    
V 13  -1078.006736  15702.083382  26553.583454      0.018337                    
P 14 -15469.624132   5964.484129 -20382.041568    -69.147114                    
V 14   3370.305882 -26480.229020 -10324.042344      0.018402                    
P 15   2645.467688 -25894.841287   3824.763702   -297.652824                    
V 15   4210.186477   5229.628515  30740.655578      0.025025                    
P 16 -14123.416827   6726.011935  21344.428754    -60.448631                    
V 16 -20773.465355 -17881.608468  -7624.099759     -0.032885                    
P 17  14215.698465   3081.939715 -21819.294441     97.435590                    
V 17  -4100.532296  28330.931181   1222.639506      0.067485                    
P 18 -11965.414947  18514.048328 -15232.890373     73.797838                    
V 18 -17356.109143   6802.838244  22772.580218      0.029791                    
P 19  15419.109968  -3897.153604 -21585.086809   -287.760472                    
V 19  -4514.071118  26242.870643  -8030.113017      0.049157                    
P 20 -22553.194408 -13979.401740   2371.953907    526.213568                    
V 20   4446.931458  -1691.013645  30797.943649      0.001703                    
P 21 -16707.909110  -7295.931332  20053.988269   -145.689490                    
V 21  20396.123140 -12434.051962  13164.050348      0.067853                    
P 22   -136.493650  17294.626599 -19953.978902   -737.482127                    
V 22 -22934.953842 -12179.541332 -10193.906448     -0.047727                    
P 23   1124.184311  26071.703271   3966.323640   -174.828162                    
V 23  -3939.902015   4435.245642 -31068.106270      0.018741                    
P 24   5850.450761 -18330.836063 -18325.288711    -69.458893                    
V 24  21372.630962  -9106.497864  16405.409275     -0.005227                    
P 25 -15911.734851 -19261.503554  -9587.293358     -4.238354                    
V 25  10802.669160   5121.954234 -28616.953511     -0.024146                    
P 26 -21141.687787   -157.497475  16165.312084      2.615390                    
V 26 -16022.583676 -12966.747362 -20879.906714      0.091321                    
P 27 -11996.660755  17625.232294  15530.101124     -8.432904                    
V 27   -109.492428 -20092.178162  22842.617592     -0.111279                    
P 28  22080.639721  12523.876327  -7028.726627    765.709262                    
V 28   5992.647926   8002.214254  30579.029823     -0.008300                    
P 29  -5007.302280 -22753.245046  12701.868776    138.597382                    
V 29   4130.086029 -15707.356789 -26447.234229     -0.098853                    
P 30  21340.559965   3446.713951  15592.344964     -9.008948                    
V 30 -17344.480623   9655.210187  21448.707409     -0.076848                    
P 31 -25272.077552   5645.983182  -6882.942013     20.927651                    
V 31   6991.344123  -5582.357069 -29829.802937     -0.026053                    
P 32 -15082.672632  -2768.801469 -21625.484515     -1.064171                    
V 32   2330.792465 -27526.439978   1773.085395      0.148561                    
EOF
